ONEWEB-0018             
1 45434U 20020L   25246.79982451 -.00000414  00000+0 -12042-2 0  9999
2 45434  87.8779  78.1231 0001671  85.4430 274.6889 13.11417741265095
ONEWEB-0083             
1 45435U 20020M   25246.79049200 -.00000442  00000+0 -12842-2 0  9995
2 45435  87.8781  78.1141 0001920  85.5027 274.6320 13.11415477265138
ONEWEB-0095             
1 45436U 20020N   25246.78132144 -.00000306  00000+0 -89853-3 0  9991
2 45436  87.8769  78.1354 0002163 106.5931 253.5435 13.11416318265137
ONEWEB-0092             
1 45437U 20020P   25246.90580089  .00000627  00000+0  17345-2 0  9991
2 45437  87.8781  78.1015 0001887  92.5378 267.5966 13.11417149265268
ONEWEB-0085             
1 45438U 20020Q   25246.78966030 -.00000453  00000+0 -13135-2 0  9994
2 45438  87.8774  78.1391 0001710  88.2414 271.8909 13.11416232265139
ONEWEB-0096             
1 45439U 20020R   25246.79134610 -.00000450  00000+0 -13062-2 0  9993
2 45439  87.8789  78.1063 0001760  80.9891 279.1436 13.11417442265124
ONEWEB-0037             
1 45440U 20020S   25246.92444408  .00000100  00000+0  24648-3 0  9992
2 45440  87.8790  78.0450 0001759  90.1725 269.9605 13.11413615265172
ONEWEB-0042             
1 45441U 20020T   25246.78102489 -.00000317  00000+0 -93082-3 0  9997
2 45441  87.8778  78.1152 0001830  87.8412 272.2926 13.11414994265124
